{"fetched_at":"2026-07-15T17:47:19.574Z","source":"https://celestrak.org/NORAD/elements/gp.php?NAME=KINEIS&FORMAT=JSON","constellation":"kineis","records":[{"OBJECT_NAME":"KINEIS-2D","OBJECT_ID":"2025-028C","EPOCH":"2026-07-15T02:57:23.800032","CLASSIFICATION_TYPE":"U","MEAN_MOTION":14.75768862,"ECCENTRICITY":0.0004741,"INCLINATION":97.9273,"RA_OF_ASC_NODE":248.0302,"ARG_OF_PERICENTER":109.9982,"MEAN_ANOMALY":250.1739,"EPHEMERIS_TYPE":0,"NORAD_CAT_ID":62930,"ELEMENT_SET_NO":999,"REV_AT_EPOCH":7683,"BSTAR":0.00012395,"MEAN_MOTION_DOT":0.00000799,"MEAN_MOTION_DDOT":0},{"OBJECT_NAME":"KINEIS-2E","OBJECT_ID":"2025-028D","EPOCH":"2026-07-15T03:14:54.152736","CLASSIFICATION_TYPE":"U","MEAN_MOTION":14.77087397,"ECCENTRICITY":0.0002134,"INCLINATION":97.8941,"RA_OF_ASC_NODE":247.1726,"ARG_OF_PERICENTER":94.9534,"MEAN_ANOMALY":265.192,"EPHEMERIS_TYPE":0,"NORAD_CAT_ID":62931,"ELEMENT_SET_NO":999,"REV_AT_EPOCH":7690,"BSTAR":0.00010498,"MEAN_MOTION_DOT":0.00000691,"MEAN_MOTION_DDOT":0},{"OBJECT_NAME":"KINEIS-2A","OBJECT_ID":"2025-028E","EPOCH":"2026-07-15T03:24:22.154112","CLASSIFICATION_TYPE":"U","MEAN_MOTION":14.73450638,"ECCENTRICITY":0.0006004,"INCLINATION":98.1288,"RA_OF_ASC_NODE":251.5714,"ARG_OF_PERICENTER":83.9046,"MEAN_ANOMALY":276.2845,"EPHEMERIS_TYPE":0,"NORAD_CAT_ID":62932,"ELEMENT_SET_NO":999,"REV_AT_EPOCH":7672,"BSTAR":0.00010893,"MEAN_MOTION_DOT":0.00000656,"MEAN_MOTION_DDOT":0},{"OBJECT_NAME":"KINEIS-2B","OBJECT_ID":"2025-028G","EPOCH":"2026-07-15T02:51:47.384352","CLASSIFICATION_TYPE":"U","MEAN_MOTION":14.73451142,"ECCENTRICITY":0.0004852,"INCLINATION":97.9655,"RA_OF_ASC_NODE":248.4733,"ARG_OF_PERICENTER":74.1048,"MEAN_ANOMALY":286.0695,"EPHEMERIS_TYPE":0,"NORAD_CAT_ID":62934,"ELEMENT_SET_NO":999,"REV_AT_EPOCH":7677,"BSTAR":0.00010458,"MEAN_MOTION_DOT":0.00000629,"MEAN_MOTION_DDOT":0},{"OBJECT_NAME":"KINEIS-4E","OBJECT_ID":"2025-056A","EPOCH":"2026-07-15T04:21:29.914272","CLASSIFICATION_TYPE":"U","MEAN_MOTION":14.7230284,"ECCENTRICITY":0.0002977,"INCLINATION":97.9068,"RA_OF_ASC_NODE":319.3044,"ARG_OF_PERICENTER":86.0721,"MEAN_ANOMALY":274.0827,"EPHEMERIS_TYPE":0,"NORAD_CAT_ID":63300,"ELEMENT_SET_NO":999,"REV_AT_EPOCH":7124,"BSTAR":0.00012254,"MEAN_MOTION_DOT":0.00000726,"MEAN_MOTION_DDOT":0},{"OBJECT_NAME":"KINEIS-4C","OBJECT_ID":"2025-056B","EPOCH":"2026-07-15T04:39:19.561824","CLASSIFICATION_TYPE":"U","MEAN_MOTION":14.72324753,"ECCENTRICITY":0.0002783,"INCLINATION":97.9122,"RA_OF_ASC_NODE":319.5654,"ARG_OF_PERICENTER":211.99,"MEAN_ANOMALY":148.1139,"EPHEMERIS_TYPE":0,"NORAD_CAT_ID":63301,"ELEMENT_SET_NO":999,"REV_AT_EPOCH":7125,"BSTAR":0.00012808,"MEAN_MOTION_DOT":0.00000761,"MEAN_MOTION_DDOT":0},{"OBJECT_NAME":"KINEIS-4D","OBJECT_ID":"2025-056C","EPOCH":"2026-07-15T04:43:49.738944","CLASSIFICATION_TYPE":"U","MEAN_MOTION":14.72427145,"ECCENTRICITY":0.00015,"INCLINATION":97.9043,"RA_OF_ASC_NODE":319.5417,"ARG_OF_PERICENTER":215.8635,"MEAN_ANOMALY":144.2472,"EPHEMERIS_TYPE":0,"NORAD_CAT_ID":63302,"ELEMENT_SET_NO":999,"REV_AT_EPOCH":7125,"BSTAR":0.00012791,"MEAN_MOTION_DOT":0.00000762,"MEAN_MOTION_DDOT":0},{"OBJECT_NAME":"KINEIS-4A","OBJECT_ID":"2025-056D","EPOCH":"2026-07-15T03:56:52.895040","CLASSIFICATION_TYPE":"U","MEAN_MOTION":14.72334073,"ECCENTRICITY":0.0002071,"INCLINATION":97.9137,"RA_OF_ASC_NODE":319.4614,"ARG_OF_PERICENTER":152.7808,"MEAN_ANOMALY":207.3509,"EPHEMERIS_TYPE":0,"NORAD_CAT_ID":63303,"ELEMENT_SET_NO":999,"REV_AT_EPOCH":7124,"BSTAR":0.00012443,"MEAN_MOTION_DOT":0.00000739,"MEAN_MOTION_DDOT":0},{"OBJECT_NAME":"KINEIS-4B","OBJECT_ID":"2025-056E","EPOCH":"2026-07-15T05:09:52.124832","CLASSIFICATION_TYPE":"U","MEAN_MOTION":14.72328669,"ECCENTRICITY":0.0005294,"INCLINATION":97.9148,"RA_OF_ASC_NODE":319.568,"ARG_OF_PERICENTER":192.7404,"MEAN_ANOMALY":167.367,"EPHEMERIS_TYPE":0,"NORAD_CAT_ID":63304,"ELEMENT_SET_NO":999,"REV_AT_EPOCH":7124,"BSTAR":0.00012451,"MEAN_MOTION_DOT":0.00000739,"MEAN_MOTION_DDOT":0}]}
