KINEIS-2D               
1 62930U 25028C   26196.12319213  .00000799  00000+0  12395-3 0  9990
2 62930  97.9273 248.0302 0004741 109.9982 250.1739 14.75768862 76837
KINEIS-2E               
1 62931U 25028D   26196.13534899  .00000691  00000+0  10498-3 0  9994
2 62931  97.8941 247.1726 0002134  94.9534 265.1920 14.77087397 76904
KINEIS-2A               
1 62932U 25028E   26196.14192308  .00000656  00000+0  10893-3 0  9991
2 62932  98.1288 251.5714 0006004  83.9046 276.2845 14.73450638 76722
KINEIS-2B               
1 62934U 25028G   26196.11929843  .00000629  00000+0  10458-3 0  9999
2 62934  97.9655 248.4733 0004852  74.1048 286.0695 14.73451142 76776
KINEIS-4E               
1 63300U 25056A   26196.18159623  .00000726  00000+0  12254-3 0  9990
2 63300  97.9068 319.3044 0002977  86.0721 274.0827 14.72302840 71241
KINEIS-4C               
1 63301U 25056B   26196.19397641  .00000761  00000+0  12808-3 0  9990
2 63301  97.9122 319.5654 0002783 211.9900 148.1139 14.72324753 71250
KINEIS-4D               
1 63302U 25056C   26196.19710346  .00000762  00000+0  12791-3 0  9994
2 63302  97.9043 319.5417 0001500 215.8635 144.2472 14.72427145 71250
KINEIS-4A               
1 63303U 25056D   26196.16450110  .00000739  00000+0  12443-3 0  9990
2 63303  97.9137 319.4614 0002071 152.7808 207.3509 14.72334073 71246
KINEIS-4B               
1 63304U 25056E   26196.21518663  .00000739  00000+0  12451-3 0  9994
2 63304  97.9148 319.5680 0005294 192.7404 167.3670 14.72328669 71247
